STARLINK-36829          
1 67957U 26037AB  26064.83334490 -.01436695  59854-3 -37466-2 0  9992
2 67957  43.0000 222.1776 0001554 282.2291 333.2341 15.94112749  2577
STARLINK-36799          
1 67958U 26037AC  26064.83334490 -.01435575  59987-3 -36706-2 0  9992
2 67958  42.9999 222.1562 0001644 282.6620 341.3180 15.94481273  2578
STARLINK-36834          
1 67959U 26037AD  26064.83334490 -.01481560  63738-3 -37338-2 0  9999
2 67959  43.0001 222.1410 0001405 276.4056 353.3908 15.94758576  2570
STARLINK-36841          
1 67960U 26037AE  26064.83334490 -.01430542  59674-3 -36342-2 0  9993
2 67960  42.9998 222.1486 0001389 281.8332 344.9225 15.94601672  2578
STARLINK-36912          
1 67961U 26038A   26064.83334490 -.01512723  70323-3 -30519-2 0  9991
2 67961  97.2761  74.8095 0001271  86.1112 155.6243 15.99737749  2577
STARLINK-36881          
1 67962U 26038B   26064.83334490 -.01528642  71775-3 -30691-2 0  9992
2 67962  97.2760  74.8101 0001236  86.2551 157.3725 15.99826397  2576
STARLINK-36357          
1 67963U 26038C   26064.83334490 -.01518041  71041-3 -30073-2 0  9995
2 67963  97.2757  74.8125 0001300  85.9466 162.7099 16.00061691  2577
STARLINK-36349          
1 67964U 26038D   26064.83334490 -.01525634  71610-3 -30419-2 0  9998
2 67964  97.2755  74.8111 0001354  88.0037 158.1326 15.99948113  2570
STARLINK-36806          
1 67965U 26038E   26064.83334490 -.01529409  72151-3 -30051-2 0  9996
2 67965  97.2752  74.8137 0001247  83.5062 168.0572 16.00208059  2579
STARLINK-36820          
1 67966U 26038F   26064.83334490 -.01512231  70739-3 -29529-2 0  9990
2 67966  97.2751  74.8148 0001251  90.5003 163.5096 16.00315645  2570
STARLINK-36819          
1 67967U 26038G   26064.83334490 -.01526922  72128-3 -29598-2 0  9993
2 67967  97.2751  74.8158 0001281  83.4498 173.1900 16.00446628  2571
STARLINK-36812          
1 67968U 26038H   26064.83334490 -.01524356  71988-3 -29373-2 0  9997
2 67968  97.2747  74.8164 0001236  86.0178 172.8847 16.00551393  2570
STARLINK-36709          
1 67969U 26038J   26064.83334490 -.01499568  70023-3 -28491-2 0  9993
2 67969  97.2747  74.8189 0001208  81.6732 182.6052 16.00795546  2571
STARLINK-36319          
1 67970U 26038K   26064.83334490 -.01485809  68728-3 -28447-2 0  9998
2 67970  97.2746  74.8174 0001262  75.9964 185.5756 16.00658720  2541
STARLINK-36710          
1 67971U 26038L   26064.83334490 -.01609103  80023-3 -30247-2 0  9997
2 67971  97.2744  74.8203 0001199 109.6498 157.9182 16.00997456  2570
STARLINK-36894          
1 67972U 26038M   26064.83334490 -.01485510  69033-3 -27765-2 0  9991
2 67972  97.2741  74.8215 0001257  74.2344 196.0249 16.01080307  2570
