[{"OBJECT_NAME":"STARLINK-36829","OBJECT_ID":"2026-037AB","EPOCH":"2026-03-05T20:00:00.999360","MEAN_MOTION":15.94112749,"ECCENTRICITY":0.0001554,"INCLINATION":43,"RA_OF_ASC_NODE":222.1776,"ARG_OF_PERICENTER":282.2291,"MEAN_ANOMALY":333.2341,"EPHEMERIS_TYPE":0,"CLASSIFICATION_TYPE":"U","NORAD_CAT_ID":67957,"ELEMENT_SET_NO":999,"REV_AT_EPOCH":257,"BSTAR":-0.0037466,"MEAN_MOTION_DOT":-0.01436695,"MEAN_MOTION_DDOT":0.00059854},{"OBJECT_NAME":"STARLINK-36799","OBJECT_ID":"2026-037AC","EPOCH":"2026-03-05T20:00:00.999360","MEAN_MOTION":15.94481273,"ECCENTRICITY":0.0001644,"INCLINATION":42.9999,"RA_OF_ASC_NODE":222.1562,"ARG_OF_PERICENTER":282.662,"MEAN_ANOMALY":341.318,"EPHEMERIS_TYPE":0,"CLASSIFICATION_TYPE":"U","NORAD_CAT_ID":67958,"ELEMENT_SET_NO":999,"REV_AT_EPOCH":257,"BSTAR":-0.0036706,"MEAN_MOTION_DOT":-0.01435575,"MEAN_MOTION_DDOT":0.00059987},{"OBJECT_NAME":"STARLINK-36834","OBJECT_ID":"2026-037AD","EPOCH":"2026-03-05T20:00:00.999360","MEAN_MOTION":15.94758576,"ECCENTRICITY":0.0001405,"INCLINATION":43.0001,"RA_OF_ASC_NODE":222.141,"ARG_OF_PERICENTER":276.4056,"MEAN_ANOMALY":353.3908,"EPHEMERIS_TYPE":0,"CLASSIFICATION_TYPE":"U","NORAD_CAT_ID":67959,"ELEMENT_SET_NO":999,"REV_AT_EPOCH":257,"BSTAR":-0.0037338,"MEAN_MOTION_DOT":-0.0148156,"MEAN_MOTION_DDOT":0.00063738},{"OBJECT_NAME":"STARLINK-36841","OBJECT_ID":"2026-037AE","EPOCH":"2026-03-05T20:00:00.999360","MEAN_MOTION":15.94601672,"ECCENTRICITY":0.0001389,"INCLINATION":42.9998,"RA_OF_ASC_NODE":222.1486,"ARG_OF_PERICENTER":281.8332,"MEAN_ANOMALY":344.9225,"EPHEMERIS_TYPE":0,"CLASSIFICATION_TYPE":"U","NORAD_CAT_ID":67960,"ELEMENT_SET_NO":999,"REV_AT_EPOCH":257,"BSTAR":-0.0036342,"MEAN_MOTION_DOT":-0.01430542,"MEAN_MOTION_DDOT":0.00059674},{"OBJECT_NAME":"STARLINK-36912","OBJECT_ID":"2026-038A","EPOCH":"2026-03-05T20:00:00.999360","MEAN_MOTION":15.99737749,"ECCENTRICITY":0.0001271,"INCLINATION":97.2761,"RA_OF_ASC_NODE":74.8095,"ARG_OF_PERICENTER":86.1112,"MEAN_ANOMALY":155.6243,"EPHEMERIS_TYPE":0,"CLASSIFICATION_TYPE":"U","NORAD_CAT_ID":67961,"ELEMENT_SET_NO":999,"REV_AT_EPOCH":257,"BSTAR":-0.0030519,"MEAN_MOTION_DOT":-0.01512723,"MEAN_MOTION_DDOT":0.00070323},{"OBJECT_NAME":"STARLINK-36881","OBJECT_ID":"2026-038B","EPOCH":"2026-03-05T20:00:00.999360","MEAN_MOTION":15.99826397,"ECCENTRICITY":0.0001236,"INCLINATION":97.276,"RA_OF_ASC_NODE":74.8101,"ARG_OF_PERICENTER":86.2551,"MEAN_ANOMALY":157.3725,"EPHEMERIS_TYPE":0,"CLASSIFICATION_TYPE":"U","NORAD_CAT_ID":67962,"ELEMENT_SET_NO":999,"REV_AT_EPOCH":257,"BSTAR":-0.0030691,"MEAN_MOTION_DOT":-0.01528642,"MEAN_MOTION_DDOT":0.00071775},{"OBJECT_NAME":"STARLINK-36357","OBJECT_ID":"2026-038C","EPOCH":"2026-03-05T20:00:00.999360","MEAN_MOTION":16.00061691,"ECCENTRICITY":0.00013,"INCLINATION":97.2757,"RA_OF_ASC_NODE":74.8125,"ARG_OF_PERICENTER":85.9466,"MEAN_ANOMALY":162.7099,"EPHEMERIS_TYPE":0,"CLASSIFICATION_TYPE":"U","NORAD_CAT_ID":67963,"ELEMENT_SET_NO":999,"REV_AT_EPOCH":257,"BSTAR":-0.0030073,"MEAN_MOTION_DOT":-0.01518041,"MEAN_MOTION_DDOT":0.00071041},{"OBJECT_NAME":"STARLINK-36349","OBJECT_ID":"2026-038D","EPOCH":"2026-03-05T20:00:00.999360","MEAN_MOTION":15.99948113,"ECCENTRICITY":0.0001354,"INCLINATION":97.2755,"RA_OF_ASC_NODE":74.8111,"ARG_OF_PERICENTER":88.0037,"MEAN_ANOMALY":158.1326,"EPHEMERIS_TYPE":0,"CLASSIFICATION_TYPE":"U","NORAD_CAT_ID":67964,"ELEMENT_SET_NO":999,"REV_AT_EPOCH":257,"BSTAR":-0.0030419,"MEAN_MOTION_DOT":-0.01525634,"MEAN_MOTION_DDOT":0.0007161},{"OBJECT_NAME":"STARLINK-36806","OBJECT_ID":"2026-038E","EPOCH":"2026-03-05T20:00:00.999360","MEAN_MOTION":16.00208059,"ECCENTRICITY":0.0001247,"INCLINATION":97.2752,"RA_OF_ASC_NODE":74.8137,"ARG_OF_PERICENTER":83.5062,"MEAN_ANOMALY":168.0572,"EPHEMERIS_TYPE":0,"CLASSIFICATION_TYPE":"U","NORAD_CAT_ID":67965,"ELEMENT_SET_NO":999,"REV_AT_EPOCH":257,"BSTAR":-0.0030051,"MEAN_MOTION_DOT":-0.01529409,"MEAN_MOTION_DDOT":0.00072151},{"OBJECT_NAME":"STARLINK-36820","OBJECT_ID":"2026-038F","EPOCH":"2026-03-05T20:00:00.999360","MEAN_MOTION":16.00315645,"ECCENTRICITY":0.0001251,"INCLINATION":97.2751,"RA_OF_ASC_NODE":74.8148,"ARG_OF_PERICENTER":90.5003,"MEAN_ANOMALY":163.5096,"EPHEMERIS_TYPE":0,"CLASSIFICATION_TYPE":"U","NORAD_CAT_ID":67966,"ELEMENT_SET_NO":999,"REV_AT_EPOCH":257,"BSTAR":-0.0029529,"MEAN_MOTION_DOT":-0.01512231,"MEAN_MOTION_DDOT":0.00070739},{"OBJECT_NAME":"STARLINK-36819","OBJECT_ID":"2026-038G","EPOCH":"2026-03-05T20:00:00.999360","MEAN_MOTION":16.00446628,"ECCENTRICITY":0.0001281,"INCLINATION":97.2751,"RA_OF_ASC_NODE":74.8158,"ARG_OF_PERICENTER":83.4498,"MEAN_ANOMALY":173.19,"EPHEMERIS_TYPE":0,"CLASSIFICATION_TYPE":"U","NORAD_CAT_ID":67967,"ELEMENT_SET_NO":999,"REV_AT_EPOCH":257,"BSTAR":-0.0029598,"MEAN_MOTION_DOT":-0.01526922,"MEAN_MOTION_DDOT":0.00072128},{"OBJECT_NAME":"STARLINK-36812","OBJECT_ID":"2026-038H","EPOCH":"2026-03-05T20:00:00.999360","MEAN_MOTION":16.00551393,"ECCENTRICITY":0.0001236,"INCLINATION":97.2747,"RA_OF_ASC_NODE":74.8164,"ARG_OF_PERICENTER":86.0178,"MEAN_ANOMALY":172.8847,"EPHEMERIS_TYPE":0,"CLASSIFICATION_TYPE":"U","NORAD_CAT_ID":67968,"ELEMENT_SET_NO":999,"REV_AT_EPOCH":257,"BSTAR":-0.0029373,"MEAN_MOTION_DOT":-0.01524356,"MEAN_MOTION_DDOT":0.00071988},{"OBJECT_NAME":"STARLINK-36709","OBJECT_ID":"2026-038J","EPOCH":"2026-03-05T20:00:00.999360","MEAN_MOTION":16.00795546,"ECCENTRICITY":0.0001208,"INCLINATION":97.2747,"RA_OF_ASC_NODE":74.8189,"ARG_OF_PERICENTER":81.6732,"MEAN_ANOMALY":182.6052,"EPHEMERIS_TYPE":0,"CLASSIFICATION_TYPE":"U","NORAD_CAT_ID":67969,"ELEMENT_SET_NO":999,"REV_AT_EPOCH":257,"BSTAR":-0.0028491,"MEAN_MOTION_DOT":-0.01499568,"MEAN_MOTION_DDOT":0.00070023},{"OBJECT_NAME":"STARLINK-36319","OBJECT_ID":"2026-038K","EPOCH":"2026-03-05T20:00:00.999360","MEAN_MOTION":16.0065872,"ECCENTRICITY":0.0001262,"INCLINATION":97.2746,"RA_OF_ASC_NODE":74.8174,"ARG_OF_PERICENTER":75.9964,"MEAN_ANOMALY":185.5756,"EPHEMERIS_TYPE":0,"CLASSIFICATION_TYPE":"U","NORAD_CAT_ID":67970,"ELEMENT_SET_NO":999,"REV_AT_EPOCH":254,"BSTAR":-0.0028447,"MEAN_MOTION_DOT":-0.01485809,"MEAN_MOTION_DDOT":0.00068728},{"OBJECT_NAME":"STARLINK-36710","OBJECT_ID":"2026-038L","EPOCH":"2026-03-05T20:00:00.999360","MEAN_MOTION":16.00997456,"ECCENTRICITY":0.0001199,"INCLINATION":97.2744,"RA_OF_ASC_NODE":74.8203,"ARG_OF_PERICENTER":109.6498,"MEAN_ANOMALY":157.9182,"EPHEMERIS_TYPE":0,"CLASSIFICATION_TYPE":"U","NORAD_CAT_ID":67971,"ELEMENT_SET_NO":999,"REV_AT_EPOCH":257,"BSTAR":-0.0030247,"MEAN_MOTION_DOT":-0.01609103,"MEAN_MOTION_DDOT":0.00080023},{"OBJECT_NAME":"STARLINK-36894","OBJECT_ID":"2026-038M","EPOCH":"2026-03-05T20:00:00.999360","MEAN_MOTION":16.01080307,"ECCENTRICITY":0.0001257,"INCLINATION":97.2741,"RA_OF_ASC_NODE":74.8215,"ARG_OF_PERICENTER":74.2344,"MEAN_ANOMALY":196.0249,"EPHEMERIS_TYPE":0,"CLASSIFICATION_TYPE":"U","NORAD_CAT_ID":67972,"ELEMENT_SET_NO":999,"REV_AT_EPOCH":257,"BSTAR":-0.0027765,"MEAN_MOTION_DOT":-0.0148551,"MEAN_MOTION_DDOT":0.00069033}]
